SPAWAR-CAL-R            
1 43776U 18099U   26067.65115975  .00003570  00000+0  25336-3 0  9990
2 43776  97.4524 111.5817 0019701 348.9052  11.1737 15.05212097396878
STARLINK-6169           
1 56889U 23083P   26068.04587112 -.00000159  00000+0  33019-5 0  9998
2 56889  43.0038  85.2649 0001448 270.0227  90.0449 15.02534576151570
